ONEWEB-0267             
1 48985U 21060U   25228.62094593  .00000112  00000+0  25899-3 0  9999
2 48985  87.9025 289.4851 0002007  88.1517 271.9844 13.16595104200803
ONEWEB-0268             
1 48986U 21060V   25228.43728001 -.00000057  00000+0 -18346-3 0  9996
2 48986  87.9023 289.5277 0002113  94.8422 265.2950 13.16593325199750
ONEWEB-0269             
1 48987U 21060W   25228.41826798 -.00000023  00000+0 -94130-4 0  9996
2 48987  87.9022 289.5632 0002093  99.7062 260.4305 13.16592514199521
ONEWEB-0270             
1 48988U 21060X   25228.58769323 -.00000107  00000+0 -31313-3 0  9991
2 48988  87.9026 289.4999 0001822  83.4865 276.6473 13.16593264199585
ONEWEB-0271             
1 48989U 21060Y   25228.19504707 -.00000032  00000+0 -11718-3 0  9996
2 48989  87.9026 289.5615 0002036  87.8275 272.3089 13.16594634199536
ONEWEB-0272             
1 48990U 21060Z   25228.44521353 -.00000990  00000+0 -26227-2 0  9995
2 48990  87.9026 289.5415 0002127  89.3316 270.8058 13.16599443199510
ONEWEB-0273             
1 48991U 21060AA  25228.61936326  .00000071  00000+0  15099-3 0  9999
2 48991  87.9028 289.4929 0001868  91.8864 268.2481 13.16593350200817
ONEWEB-0274             
1 48992U 21060AB  25228.41670587  .00000074  00000+0  15885-3 0  9998
2 48992  87.9022 289.5668 0002411  92.8481 267.2925 13.16595417199527
